IRIDIUM 119             
1 42959U 17061E   25305.47202135  .00000006  00000+0 -48959-5 0  9999
2 42959  86.3940 120.4689 0002154  83.8708 276.2733 14.34217551422176
IRIDIUM 107             
1 42960U 17061F   25305.49106036  .00000164  00000+0  51467-4 0  9997
2 42960  86.3935 120.4807 0001979  77.0715 283.0702 14.34216386422189
IRIDIUM 132             
1 42961U 17061G   25305.49739044  .00000102  00000+0  29191-4 0  9990
2 42961  86.3934 120.4592 0002021  87.3852 272.7575 14.34217988422187
IRIDIUM 136             
1 42962U 17061H   25305.45933566  .00000085  00000+0  23264-4 0  9997
2 42962  86.3936 120.4807 0002133  85.0572 275.0868 14.34217929422194
IRIDIUM 139             
1 42963U 17061J   25305.46567778  .00000093  00000+0  26017-4 0  9995
2 42963  86.3937 120.5362 0001925  84.3126 275.8289 14.34218263422207
IRIDIUM 125             
1 42964U 17061K   25305.45299349  .00000079  00000+0  21209-4 0  9993
2 42964  86.3938 120.5984 0002261  75.0919 285.0527 14.34218012422211
IRIDIUM 135             
1 43070U 17083A   25305.56665592  .00000328  00000+0  11001-3 0  9990
2 43070  86.3971  57.1513 0002044  99.0246 261.1181 14.34217047411528
IRIDIUM 138             
1 43071U 17083B   25305.59202813  .00000038  00000+0  66312-5 0  9992
2 43071  86.3986  56.8010 0002462  89.9105 270.2373 14.34217959411514
